{
  "type": "FeatureCollection",
  "features": [
    {
      "type": "Feature",
      "properties": {
        "norad_id": 33376,
        "name": "GALAXY 19 (G-19)",
        "group": "intelsat",
        "lat": -0.011879142428098993,
        "lon": -34.54835854223277,
        "alt_km": 35781.43960827701,
        "timestamp": "2025-12-12T22:42:12.217677+00:00",
        "meta_object_name": "GALAXY 19 (G-19)",
        "meta_object_id": "2008-045A",
        "meta_epoch": "2025-12-12T06:10:15.657888",
        "meta_mean_motion": 1.00269727,
        "meta_eccentricity": 0.00026272,
        "meta_inclination": 0.0173,
        "meta_ra_of_asc_node": 351.1534,
        "meta_arg_of_pericenter": 272.457,
        "meta_mean_anomaly": 173.1617,
        "meta_ephemeris_type": 0,
        "meta_classification_type": "U",
        "meta_norad_cat_id": 33376,
        "meta_element_set_no": 999,
        "meta_rev_at_epoch": 6302,
        "meta_bstar": 0,
        "meta_mean_motion_dot": 0,
        "meta_mean_motion_ddot": 0,
        "tle_line1": "1 33376U 08045A   25346.25712567  .00000000  00000+0  00000+0 0  9992",
        "tle_line2": "2 33376   0.0173 351.1534 0002627 272.4570 173.1617  1.00269727 63022"
      },
      "geometry": {
        "type": "Point",
        "coordinates": [
          -34.54835854223277,
          -0.011879142428098993
        ]
      }
    },
    {
      "type": "Feature",
      "properties": {
        "norad_id": 35493,
        "name": "FM-5",
        "group": "intelsat",
        "lat": 0.013261806902609087,
        "lon": -23.714150670616768,
        "alt_km": 35788.99376513014,
        "timestamp": "2025-12-12T22:42:12.217689+00:00",
        "meta_object_name": "FM-5",
        "meta_object_id": "2009-034A",
        "meta_epoch": "2025-12-11T23:22:27.924384",
        "meta_mean_motion": 1.00271483,
        "meta_eccentricity": 6.71e-05,
        "meta_inclination": 0.0165,
        "meta_ra_of_asc_node": 292.0867,
        "meta_arg_of_pericenter": 235.2397,
        "meta_mean_anomaly": 178.0732,
        "meta_ephemeris_type": 0,
        "meta_classification_type": "U",
        "meta_norad_cat_id": 35493,
        "meta_element_set_no": 999,
        "meta_rev_at_epoch": 4476,
        "meta_bstar": 0,
        "meta_mean_motion_dot": -1.91e-06,
        "meta_mean_motion_ddot": 0,
        "tle_line1": "1 35493U 09034A   25345.97393431 -.00000191  00000+0  00000+0 0  9998",
        "tle_line2": "2 35493   0.0165 292.0867 0000671 235.2397 178.0732  1.00271483 44762"
      },
      "geometry": {
        "type": "Point",
        "coordinates": [
          -23.714150670616768,
          0.013261806902609087
        ]
      }
    },
    {
      "type": "Feature",
      "properties": {
        "norad_id": 36097,
        "name": "INTELSAT 14 (IS-14)",
        "group": "intelsat",
        "lat": 0.0057375149933603506,
        "lon": 17.462688048706653,
        "alt_km": 35789.82317923534,
        "timestamp": "2025-12-12T22:42:12.217700+00:00",
        "meta_object_name": "INTELSAT 14 (IS-14)",
        "meta_object_id": "2009-064A",
        "meta_epoch": "2025-12-12T06:25:06.735648",
        "meta_mean_motion": 1.00272471,
        "meta_eccentricity": 0.00025152,
        "meta_inclination": 0.0139,
        "meta_ra_of_asc_node": 26.9642,
        "meta_arg_of_pericenter": 239.2791,
        "meta_mean_anomaly": 226.2559,
        "meta_ephemeris_type": 0,
        "meta_classification_type": "U",
        "meta_norad_cat_id": 36097,
        "meta_element_set_no": 999,
        "meta_rev_at_epoch": 5873,
        "meta_bstar": 0,
        "meta_mean_motion_dot": -2.63e-06,
        "meta_mean_motion_ddot": 0,
        "tle_line1": "1 36097U 09064A   25346.26743907 -.00000263  00000+0  00000+0 0  9992",
        "tle_line2": "2 36097   0.0139  26.9642 0002515 239.2791 226.2559  1.00272471 58733"
      },
      "geometry": {
        "type": "Point",
        "coordinates": [
          17.462688048706653,
          0.0057375149933603506
        ]
      }
    },
    {
      "type": "Feature",
      "properties": {
        "norad_id": 36106,
        "name": "INTELSAT 15 (IS-15)",
        "group": "intelsat",
        "lat": -0.011664696652528428,
        "lon": 147.5588639591897,
        "alt_km": 35791.050627501936,
        "timestamp": "2025-12-12T22:42:12.217712+00:00",
        "meta_object_name": "INTELSAT 15 (IS-15)",
        "meta_object_id": "2009-067A",
        "meta_epoch": "2025-12-12T01:54:01.095840",
        "meta_mean_motion": 1.00272349,
        "meta_eccentricity": 0.00023524,
        "meta_inclination": 0.0211,
        "meta_ra_of_asc_node": 292.3297,
        "meta_arg_of_pericenter": 335.9709,
        "meta_mean_anomaly": 286.3858,
        "meta_ephemeris_type": 0,
        "meta_classification_type": "U",
        "meta_norad_cat_id": 36106,
        "meta_element_set_no": 999,
        "meta_rev_at_epoch": 3935,
        "meta_bstar": 0,
        "meta_mean_motion_dot": -1.76e-06,
        "meta_mean_motion_ddot": 0,
        "tle_line1": "1 36106U 09067A   25346.07917935 -.00000176  00000+0  00000+0 0  9992",
        "tle_line2": "2 36106   0.0211 292.3297 0002352 335.9709 286.3858  1.00272349 39352"
      },
      "geometry": {
        "type": "Point",
        "coordinates": [
          147.5588639591897,
          -0.011664696652528428
        ]
      }
    },
    {
      "type": "Feature",
      "properties": {
        "norad_id": 36131,
        "name": "DIRECTV 12",
        "group": "intelsat",
        "lat": -0.019559327923626572,
        "lon": -40.29062976364352,
        "alt_km": 35784.23154725014,
        "timestamp": "2025-12-12T22:42:12.217724+00:00",
        "meta_object_name": "DIRECTV 12",
        "meta_object_id": "2009-075A",
        "meta_epoch": "2025-12-12T06:08:38.312736",
        "meta_mean_motion": 1.00272296,
        "meta_eccentricity": 5.614e-05,
        "meta_inclination": 0.0427,
        "meta_ra_of_asc_node": 132.0046,
        "meta_arg_of_pericenter": 230.7625,
        "meta_mean_anomaly": 67.8805,
        "meta_ephemeris_type": 0,
        "meta_classification_type": "U",
        "meta_norad_cat_id": 36131,
        "meta_element_set_no": 999,
        "meta_rev_at_epoch": 4467,
        "meta_bstar": 0,
        "meta_mean_motion_dot": -9.4e-07,
        "meta_mean_motion_ddot": 0,
        "tle_line1": "1 36131U 09075A   25346.25599899 -.00000094  00000+0  00000+0 0  9993",
        "tle_line2": "2 36131   0.0427 132.0046 0000561 230.7625  67.8805  1.00272296 44676"
      },
      "geometry": {
        "type": "Point",
        "coordinates": [
          -40.29062976364352,
          -0.019559327923626572
        ]
      }
    },
    {
      "type": "Feature",
      "properties": {
        "norad_id": 36397,
        "name": "INTELSAT 16 (IS-16)",
        "group": "intelsat",
        "lat": 0.006458955426336163,
        "lon": -13.741484851356073,
        "alt_km": 35784.956318858676,
        "timestamp": "2025-12-12T22:42:12.217736+00:00",
        "meta_object_name": "INTELSAT 16 (IS-16)",
        "meta_object_id": "2010-006A",
        "meta_epoch": "2025-12-12T06:16:07.596192",
        "meta_mean_motion": 1.0027224,
        "meta_eccentricity": 0.00020928,
        "meta_inclination": 0.009,
        "meta_ra_of_asc_node": 331.8261,
        "meta_arg_of_pericenter": 291.3327,
        "meta_mean_anomaly": 195.8873,
        "meta_ephemeris_type": 0,
        "meta_classification_type": "U",
        "meta_norad_cat_id": 36397,
        "meta_element_set_no": 999,
        "meta_rev_at_epoch": 5778,
        "meta_bstar": 0,
        "meta_mean_motion_dot": -2.35e-06,
        "meta_mean_motion_ddot": 0,
        "tle_line1": "1 36397U 10006A   25346.26119903 -.00000235  00000+0  00000+0 0  9995",
        "tle_line2": "2 36397   0.0090 331.8261 0002092 291.3327 195.8873  1.00272240 57789"
      },
      "geometry": {
        "type": "Point",
        "coordinates": [
          -13.741484851356073,
          0.006458955426336163
        ]
      }
    },
    {
      "type": "Feature",
      "properties": {
        "norad_id": 37185,
        "name": "XM-5",
        "group": "intelsat",
        "lat": 0.025488935959802582,
        "lon": -52.757244126403016,
        "alt_km": 35791.89485764729,
        "timestamp": "2025-12-12T22:42:12.217747+00:00",
        "meta_object_name": "XM-5",
        "meta_object_id": "2010-053A",
        "meta_epoch": "2025-12-12T03:46:38.737056",
        "meta_mean_motion": 1.00272664,
        "meta_eccentricity": 0.0001561,
        "meta_inclination": 0.0596,
        "meta_ra_of_asc_node": 272.3532,
        "meta_arg_of_pericenter": 236.8409,
        "meta_mean_anomaly": 233.3792,
        "meta_ephemeris_type": 0,
        "meta_classification_type": "U",
        "meta_norad_cat_id": 37185,
        "meta_element_set_no": 999,
        "meta_rev_at_epoch": 5560,
        "meta_bstar": 0,
        "meta_mean_motion_dot": -1.4e-07,
        "meta_mean_motion_ddot": 0,
        "tle_line1": "1 37185U 10053A   25346.15739279 -.00000014  00000+0  00000+0 0  9990",
        "tle_line2": "2 37185   0.0596 272.3532 0001561 236.8409 233.3792  1.00272664 55608"
      },
      "geometry": {
        "type": "Point",
        "coordinates": [
          -52.757244126403016,
          0.025488935959802582
        ]
      }
    }
  ]
}